{
  "links" : {
    "next" : "https://api.nasa.gov/neo/rest/v1/feed?start_date=2010-03-09&end_date=2010-03-09&detailed=true&api_key=t0TVs3DtDT2H8Oy2Zy8m2eVrNsAVKAexjcZXUckd",
    "prev" : "https://api.nasa.gov/neo/rest/v1/feed?start_date=2010-03-07&end_date=2010-03-07&detailed=true&api_key=t0TVs3DtDT2H8Oy2Zy8m2eVrNsAVKAexjcZXUckd",
    "self" : "https://api.nasa.gov/neo/rest/v1/feed?start_date=2010-03-08&end_date=2010-03-08&detailed=true&api_key=t0TVs3DtDT2H8Oy2Zy8m2eVrNsAVKAexjcZXUckd"
  },
  "element_count" : 9,
  "near_earth_objects" : {
    "2010-03-08" : [ {
      "links" : {
        "self" : "https://api.nasa.gov/neo/rest/v1/neo/3724583?api_key=t0TVs3DtDT2H8Oy2Zy8m2eVrNsAVKAexjcZXUckd"
      },
      "neo_reference_id" : "3724583",
      "name" : "(2015 OH26)",
      "nasa_jpl_url" : "http://ssd.jpl.nasa.gov/sbdb.cgi?sstr=3724583",
      "absolute_magnitude_h" : 24.1,
      "estimated_diameter" : {
        "kilometers" : {
          "estimated_diameter_min" : 0.040230458,
          "estimated_diameter_max" : 0.0899580388
        },
        "meters" : {
          "estimated_diameter_min" : 40.2304579834,
          "estimated_diameter_max" : 89.9580388169
        },
        "miles" : {
          "estimated_diameter_min" : 0.0249980399,
          "estimated_diameter_max" : 0.0558973165
        },
        "feet" : {
          "estimated_diameter_min" : 131.9896957704,
          "estimated_diameter_max" : 295.1379320721
        }
      },
      "is_potentially_hazardous_asteroid" : false,
      "close_approach_data" : [ {
        "close_approach_date" : "2010-03-08",
        "epoch_date_close_approach" : 1268035200000,
        "relative_velocity" : {
          "kilometers_per_second" : "10.6061247982",
          "kilometers_per_hour" : "38182.0492734304",
          "miles_per_hour" : "23724.8405610379"
        },
        "miss_distance" : {
          "astronomical" : "0.2770658264",
          "lunar" : "107.7786026001",
          "kilometers" : "41448456",
          "miles" : "25754876"
        },
        "orbiting_body" : "Earth"
      } ],
      "orbital_data" : {
        "orbit_id" : "5",
        "orbit_determination_date" : "2017-04-06 08:32:41",
        "orbit_uncertainty" : "7",
        "minimum_orbit_intersection" : ".0550164",
        "jupiter_tisserand_invariant" : "5.380",
        "epoch_osculation" : "2458000.5",
        "eccentricity" : ".143624355691944",
        "semi_major_axis" : "1.164899810231795",
        "inclination" : "12.91813944775535",
        "ascending_node_longitude" : "123.4343739763532",
        "orbital_period" : "459.2310968429791",
        "perihelion_distance" : ".9975918255415854",
        "perihelion_argument" : "113.537096547534",
        "aphelion_distance" : "1.332207794922004",
        "perihelion_time" : "2458077.801598706744",
        "mean_anomaly" : "299.4018050481826",
        "mean_motion" : ".7839190387472642",
        "equinox" : "J2000"
      }
    }, {
      "links" : {
        "self" : "https://api.nasa.gov/neo/rest/v1/neo/3743614?api_key=t0TVs3DtDT2H8Oy2Zy8m2eVrNsAVKAexjcZXUckd"
      },
      "neo_reference_id" : "3743614",
      "name" : "(2016 CX193)",
      "nasa_jpl_url" : "http://ssd.jpl.nasa.gov/sbdb.cgi?sstr=3743614",
      "absolute_magnitude_h" : 21.0,
      "estimated_diameter" : {
        "kilometers" : {
          "estimated_diameter_min" : 0.1677084622,
          "estimated_diameter_max" : 0.3750075218
        },
        "meters" : {
          "estimated_diameter_min" : 167.7084621628,
          "estimated_diameter_max" : 375.0075217981
        },
        "miles" : {
          "estimated_diameter_min" : 0.1042091748,
          "estimated_diameter_max" : 0.2330187988
        },
        "feet" : {
          "estimated_diameter_min" : 550.2246310023,
          "estimated_diameter_max" : 1230.3396778159
        }
      },
      "is_potentially_hazardous_asteroid" : false,
      "close_approach_data" : [ {
        "close_approach_date" : "2010-03-08",
        "epoch_date_close_approach" : 1268035200000,
        "relative_velocity" : {
          "kilometers_per_second" : "5.0442770429",
          "kilometers_per_hour" : "18159.3973543439",
          "miles_per_hour" : "11283.5433172033"
        },
        "miss_distance" : {
          "astronomical" : "0.4150770788",
          "lunar" : "161.4649810791",
          "kilometers" : "62094648",
          "miles" : "38583828"
        },
        "orbiting_body" : "Earth"
      } ],
      "orbital_data" : {
        "orbit_id" : "15",
        "orbit_determination_date" : "2017-04-06 08:28:23",
        "orbit_uncertainty" : "5",
        "minimum_orbit_intersection" : ".225863",
        "jupiter_tisserand_invariant" : "4.936",
        "epoch_osculation" : "2458000.5",
        "eccentricity" : ".09221683118353319",
        "semi_major_axis" : "1.31761168197323",
        "inclination" : "9.979999666060365",
        "ascending_node_longitude" : "276.6472550314056",
        "orbital_period" : "552.4329596079315",
        "perihelion_distance" : "1.196105707931253",
        "perihelion_argument" : "142.403725710802",
        "aphelion_distance" : "1.439117656015206",
        "perihelion_time" : "2457869.821925780777",
        "mean_anomaly" : "85.15803755139464",
        "mean_motion" : ".6516627832189746",
        "equinox" : "J2000"
      }
    }, {
      "links" : {
        "self" : "https://api.nasa.gov/neo/rest/v1/neo/3777808?api_key=t0TVs3DtDT2H8Oy2Zy8m2eVrNsAVKAexjcZXUckd"
      },
      "neo_reference_id" : "3777808",
      "name" : "(2015 YE21)",
      "nasa_jpl_url" : "http://ssd.jpl.nasa.gov/sbdb.cgi?sstr=3777808",
      "absolute_magnitude_h" : 20.984,
      "estimated_diameter" : {
        "kilometers" : {
          "estimated_diameter_min" : 0.1689487475,
          "estimated_diameter_max" : 0.3777808842
        },
        "meters" : {
          "estimated_diameter_min" : 168.9487475475,
          "estimated_diameter_max" : 377.7808842296
        },
        "miles" : {
          "estimated_diameter_min" : 0.1049798522,
          "estimated_diameter_max" : 0.2347420858
        },
        "feet" : {
          "estimated_diameter_min" : 554.2938089037,
          "estimated_diameter_max" : 1239.4386362159
        }
      },
      "is_potentially_hazardous_asteroid" : false,
      "close_approach_data" : [ {
        "close_approach_date" : "2010-03-08",
        "epoch_date_close_approach" : 1268035200000,
        "relative_velocity" : {
          "kilometers_per_second" : "5.0437543282",
          "kilometers_per_hour" : "18157.515581574",
          "miles_per_hour" : "11282.3740567841"
        },
        "miss_distance" : {
          "astronomical" : "0.4149923555",
          "lunar" : "161.4320220947",
          "kilometers" : "62081976",
          "miles" : "38575952"
        },
        "orbiting_body" : "Earth"
      } ],
      "orbital_data" : {
        "orbit_id" : "2",
        "orbit_determination_date" : "2017-07-22 06:20:08",
        "orbit_uncertainty" : "4",
        "minimum_orbit_intersection" : ".225872",
        "jupiter_tisserand_invariant" : "4.936",
        "epoch_osculation" : "2458000.5",
        "eccentricity" : ".09220153290794504",
        "semi_major_axis" : "1.317603810306662",
        "inclination" : "9.979611082005619",
        "ascending_node_longitude" : "276.6458841181254",
        "orbital_period" : "552.4280091035946",
        "perihelion_distance" : "1.196118719231039",
        "perihelion_argument" : "142.4074052748143",
        "aphelion_distance" : "1.439088901382286",
        "perihelion_time" : "2457869.818853121257",
        "mean_anomaly" : "85.16080303872748",
        "mean_motion" : ".6516686230015007",
        "equinox" : "J2000"
      }
    } ]
  }
}